STARLINK-2496
1 28486C 21040BL  21325.14046926  .00005264  00000-0  35275-3 0  3257
2 28486  53.0564  47.5894 0001248  73.0597 347.8911 15.06391529    13
